[
    {
        "Altitude(m)": 617719.7411879443,
        "Argument of Periapsis(deg)": 0.0,
        "Eccentricity": 0.0,
        "Inclination(deg)": 60.0,
        "Latitude(deg)": -41.102559552534075,
        "Longitude(deg)": 30.094716049879878,
        "Mean Anomaly(deg)": -130.90909999999997,
        "RAAN(deg)": 280.0,
        "Satellite Name": "Test1 1246",
        "Satellite Number": 1246,
        "Semi-Major Axis(m)": 6980739.136638005,
        "Time(s)": 0
    },
    {
        "Altitude(m)": 617911.276771757,
        "Argument of Periapsis(deg)": 0.00010418945913296404,
        "Eccentricity": 0.0,
        "Inclination(deg)": 60.0,
        "Latitude(deg)": -41.565750837955065,
        "Longitude(deg)": 30.599123105614996,
        "Mean Anomaly(deg)": -130.2889938545382,
        "RAAN(deg)": 279.99957995086027,
        "Satellite Name": "Test1 1246",
        "Satellite Number": 1246,
        "Semi-Major Axis(m)": 6980739.136638005,
        "Time(s)": 10
    },
    {
        "Altitude(m)": 618101.6871345358,
        "Argument of Periapsis(deg)": 0.0002083789182659281,
        "Eccentricity": 0.0,
        "Inclination(deg)": 60.0,
        "Latitude(deg)": -42.02626361478133,
        "Longitude(deg)": 31.111337518755494,
        "Mean Anomaly(deg)": -129.66888770907636,
        "RAAN(deg)": 279.9991599017205,
        "Satellite Name": "Test1 1246",
        "Satellite Number": 1246,
        "Semi-Major Axis(m)": 6980739.136638005,
        "Time(s)": 20
    },
    {
        "Altitude(m)": 618290.8992490958,
        "Argument of Periapsis(deg)": 0.00031256837739889213,
        "Eccentricity": 0.0,
        "Inclination(deg)": 60.0,
        "Latitude(deg)": -42.4840176363344,
        "Longitude(deg)": 31.631553973126675,
        "Mean Anomaly(deg)": -129.04878156361454,
        "RAAN(deg)": 279.9987398525808,
        "Satellite Name": "Test1 1246",
        "Satellite Number": 1246,
        "Semi-Major Axis(m)": 6980739.136638005,
        "Time(s)": 30
    },
    {
        "Altitude(m)": 618478.8404654576,
        "Argument of Periapsis(deg)": 0.0004167578365318562,
        "Eccentricity": 0.0,
        "Inclination(deg)": 60.0,
        "Latitude(deg)": -42.938930130895635,
        "Longitude(deg)": 32.159970946149,
        "Mean Anomaly(deg)": -128.4286754181527,
        "RAAN(deg)": 279.99831980344106,
        "Satellite Name": "Test1 1246",
        "Satellite Number": 1246,
        "Semi-Major Axis(m)": 6980739.136638005,
        "Time(s)": 40
    },
    {
        "Altitude(m)": 618665.4385425185,
        "Argument of Periapsis(deg)": 0.0005209472956648203,
        "Eccentricity": 0.0,
        "Inclination(deg)": 60.0,
        "Latitude(deg)": -43.39091572359565,
        "Longitude(deg)": 32.6967896109198,
        "Mean Anomaly(deg)": -127.80856927269083,
        "RAAN(deg)": 279.9978997543013,
        "Satellite Name": "Test1 1246",
        "Satellite Number": 1246,
        "Semi-Major Axis(m)": 6980739.136638005,
        "Time(s)": 50
    },
    {
        "Altitude(m)": 618850.621679478,
        "Argument of Periapsis(deg)": 0.0006251367547977843,
        "Eccentricity": 0.0,
        "Inclination(deg)": 60.0,
        "Latitude(deg)": -43.839886357661385,
        "Longitude(deg)": 33.242214231416064,
        "Mean Anomaly(deg)": -127.18846312722899,
        "RAAN(deg)": 279.9974797051615,
        "Satellite Name": "Test1 1246",
        "Satellite Number": 1246,
        "Semi-Major Axis(m)": 6980739.136638005,
        "Time(s)": 60
    },
    {
        "Altitude(m)": 619034.3185470998,
        "Argument of Periapsis(deg)": 0.0007293262139307483,
        "Eccentricity": 0.0,
        "Inclination(deg)": 60.0,
        "Latitude(deg)": -44.28575121525368,
        "Longitude(deg)": 33.79645253608022,
        "Mean Anomaly(deg)": -126.56835698176718,
        "RAAN(deg)": 279.9970596560218,
        "Satellite Name": "Test1 1246",
        "Satellite Number": 1246,
        "Semi-Major Axis(m)": 6980739.136638005,
        "Time(s)": 70
    },
    {
        "Altitude(m)": 619216.4583186923,
        "Argument of Periapsis(deg)": 0.0008335156730637124,
        "Eccentricity": 0.0,
        "Inclination(deg)": 60.0,
        "Latitude(deg)": -44.728416638165214,
        "Longitude(deg)": 34.359714554929496,
        "Mean Anomaly(deg)": -125.94825083630533,
        "RAAN(deg)": 279.996639606882,
        "Satellite Name": "Test1 1246",
        "Satellite Number": 1246,
        "Semi-Major Axis(m)": 6980739.136638005,
        "Time(s)": 80
    },
    {
        "Altitude(m)": 619396.9707009007,
        "Argument of Periapsis(deg)": 0.0009377051321966765,
        "Eccentricity": 0.0,
        "Inclination(deg)": 60.0,
        "Latitude(deg)": -45.16778604867517,
        "Longitude(deg)": 34.932212943828596,
        "Mean Anomaly(deg)": -125.32814469084347,
        "RAAN(deg)": 279.9962195577423,
        "Satellite Name": "Test1 1246",
        "Satellite Number": 1246,
        "Semi-Major Axis(m)": 6980739.136638005,
        "Time(s)": 90
    },
    {
        "Altitude(m)": 619575.7859641933,
        "Argument of Periapsis(deg)": 0.0010418945913296407,
        "Eccentricity": 0.0,
        "Inclination(deg)": 60.0,
        "Latitude(deg)": -45.603759870906295,
        "Longitude(deg)": 35.514163280827866,
        "Mean Anomaly(deg)": -124.70803854538163,
        "RAAN(deg)": 279.99579950860254,
        "Satellite Name": "Test1 1246",
        "Satellite Number": 1246,
        "Semi-Major Axis(m)": 6980739.136638005,
        "Time(s)": 100
    },
    {
        "Altitude(m)": 619752.8349731009,
        "Argument of Periapsis(deg)": 0.0011460840504626045,
        "Eccentricity": 0.0,
        "Inclination(deg)": 60.0,
        "Latitude(deg)": -46.036235453071136,
        "Longitude(deg)": 36.10578281935204,
        "Mean Anomaly(deg)": -124.08793239991982,
        "RAAN(deg)": 279.9953794594628,
        "Satellite Name": "Test1 1246",
        "Satellite Number": 1246,
        "Semi-Major Axis(m)": 6980739.136638005,
        "Time(s)": 110
    },
    {
        "Altitude(m)": 619928.049216172,
        "Argument of Periapsis(deg)": 0.0012502735095955685,
        "Eccentricity": 0.0,
        "Inclination(deg)": 60.0,
        "Latitude(deg)": -46.465106991034546,
        "Longitude(deg)": 36.70729072152762,
        "Mean Anomaly(deg)": -123.46782625445798,
        "RAAN(deg)": 279.9949594103231,
        "Satellite Name": "Test1 1246",
        "Satellite Number": 1246,
        "Semi-Major Axis(m)": 6980739.136638005,
        "Time(s)": 120
    },
    {
        "Altitude(m)": 620101.3608356352,
        "Argument of Periapsis(deg)": 0.0013544629687285324,
        "Eccentricity": 0.0,
        "Inclination(deg)": 60.0,
        "Latitude(deg)": -46.890265453675845,
        "Longitude(deg)": 37.31890825621223,
        "Mean Anomaly(deg)": -122.84772010899611,
        "RAAN(deg)": 279.99453936118334,
        "Satellite Name": "Test1 1246",
        "Satellite Number": 1246,
        "Semi-Major Axis(m)": 6980739.136638005,
        "Time(s)": 130
    },
    {
        "Altitude(m)": 620272.7026567488,
        "Argument of Periapsis(deg)": 0.0014586524278614966,
        "Eccentricity": 0.0,
        "Inclination(deg)": 60.0,
        "Latitude(deg)": -47.31159851058856,
        "Longitude(deg)": 37.940857446191664,
        "Mean Anomaly(deg)": -122.22761396353437,
        "RAAN(deg)": 279.99411931204355,
        "Satellite Name": "Test1 1246",
        "Satellite Number": 1246,
        "Semi-Major Axis(m)": 6980739.136638005,
        "Time(s)": 140
    },
    {
        "Altitude(m)": 620442.0082168308,
        "Argument of Periapsis(deg)": 0.0015628418869944607,
        "Eccentricity": 0.0,
        "Inclination(deg)": 60.0,
        "Latitude(deg)": -47.728990462705326,
        "Longitude(deg)": 38.57336118753936,
        "Mean Anomaly(deg)": -121.60750781807246,
        "RAAN(deg)": 279.9936992629039,
        "Satellite Name": "Test1 1246",
        "Satellite Number": 1246,
        "Semi-Major Axis(m)": 6980739.136638005,
        "Time(s)": 150
    },
    {
        "Altitude(m)": 620609.2117939745,
        "Argument of Periapsis(deg)": 0.0016670313461274247,
        "Eccentricity": 0.0,
        "Inclination(deg)": 60.0,
        "Latitude(deg)": -48.1423221765013,
        "Longitude(deg)": 39.216643325439726,
        "Mean Anomaly(deg)": -120.98740167261072,
        "RAAN(deg)": 279.9932792137641,
        "Satellite Name": "Test1 1246",
        "Satellite Number": 1246,
        "Semi-Major Axis(m)": 6980739.136638005,
        "Time(s)": 160
    },
    {
        "Altitude(m)": 620774.2484353817,
        "Argument of Periapsis(deg)": 0.0017712208052603888,
        "Eccentricity": 0.0,
        "Inclination(deg)": 60.0,
        "Latitude(deg)": -48.5514710224984,
        "Longitude(deg)": 39.87092717073717,
        "Mean Anomaly(deg)": -120.36729552714885,
        "RAAN(deg)": 279.99285916462435,
        "Satellite Name": "Test1 1246",
        "Satellite Number": 1246,
        "Semi-Major Axis(m)": 6980739.136638005,
        "Time(s)": 170
    },
    {
        "Altitude(m)": 620937.0539853919,
        "Argument of Periapsis(deg)": 0.001875410264393353,
        "Eccentricity": 0.0,
        "Inclination(deg)": 60.0,
        "Latitude(deg)": -48.95631081884576,
        "Longitude(deg)": 40.53643548004038,
        "Mean Anomaly(deg)": -119.74718938168711,
        "RAAN(deg)": 279.9924391154846,
        "Satellite Name": "Test1 1246",
        "Satellite Number": 1246,
        "Semi-Major Axis(m)": 6980739.136638005,
        "Time(s)": 180
    },
    {
        "Altitude(m)": 621097.5651131093,
        "Argument of Periapsis(deg)": 0.0019795997235263173,
        "Eccentricity": 0.0,
        "Inclination(deg)": 60.0,
        "Latitude(deg)": -49.35671178083674,
        "Longitude(deg)": 41.213390383614865,
        "Mean Anomaly(deg)": -119.1270832362252,
        "RAAN(deg)": 279.9920190663449,
        "Satellite Name": "Test1 1246",
        "Satellite Number": 1246,
        "Semi-Major Axis(m)": 6980739.136638005,
        "Time(s)": 190
    }
]